{
  "norad_id": 68757,
  "name": "2026-083E",
  "history": [
    {
      "epoch": "2026-04-17T03:50:04.293888Z",
      "apogee_km": 539.1884814290897,
      "perigee_km": 454.3482989670274,
      "latitude_deg": 8.022199971283518e-05,
      "longitude_deg": -10.399924155941317,
      "height_km": 492.23528719708696,
      "semi_major_axis_km": 6874.905390198058,
      "eccentricity": 0.00617028,
      "inclination_deg": 98.2473,
      "raan_deg": 252.4151,
      "arg_perigee_deg": 80.1499,
      "mean_anomaly_deg": 280.6695,
      "mean_motion_rev_day": 15.23009713
    }
  ]
}